NUSHSAT1                
1 63211U 25052B   26068.64700493  .00023034  00000+0  74857-3 0  9997
2 63211  97.4095 325.7239 0005501  84.7512 275.4357 15.31903202 54882
STARLINK-34838          
1 65343U 25189W   26068.70122398  .00020043  00000+0  68697-3 0  9997
2 65343  53.1606 207.0316 0001031  73.3677 286.7437 15.30201971 31113
